{
  "type": "FeatureCollection",
  "features": [
    {
      "type": "Feature",
      "properties": {
        "norad_id": 66961,
        "name": "STARLINK-35761",
        "group": "last-30-days",
        "lat": -7.883820601619116,
        "lon": -68.98006715662876,
        "alt_km": 348.88622710000345,
        "timestamp": "2025-12-23T07:45:08.118336+00:00",
        "meta_object_name": "STARLINK-35761",
        "meta_object_id": "2025-288C",
        "meta_epoch": "2025-12-22T22:00:03.000096",
        "meta_mean_motion": 15.75371339,
        "meta_eccentricity": 0.00017224,
        "meta_inclination": 43.0008,
        "meta_ra_of_asc_node": 104.9379,
        "meta_arg_of_pericenter": 276.5004,
        "meta_mean_anomaly": 129.1188,
        "meta_ephemeris_type": 0,
        "meta_classification_type": "U",
        "meta_norad_cat_id": 66961,
        "meta_element_set_no": 999,
        "meta_rev_at_epoch": 346,
        "meta_bstar": -0.013406988,
        "meta_mean_motion_dot": -0.01828485,
        "meta_mean_motion_ddot": 0,
        "tle_line1": "1 66961U 25288C   25356.91670139 -.01828485  00000+0 -13407-1 0  9993",
        "tle_line2": "2 66961  43.0008 104.9379 0001722 276.5004 129.1188 15.75371339  3461"
      },
      "geometry": {
        "type": "Point",
        "coordinates": [
          -68.98006715662876,
          -7.883820601619116
        ]
      }
    },
    {
      "type": "Feature",
      "properties": {
        "norad_id": 66962,
        "name": "STARLINK-35874",
        "group": "last-30-days",
        "lat": -9.173213426665395,
        "lon": -67.55168278931689,
        "alt_km": 349.35575086284916,
        "timestamp": "2025-12-23T07:45:08.118346+00:00",
        "meta_object_name": "STARLINK-35874",
        "meta_object_id": "2025-288D",
        "meta_epoch": "2025-12-22T22:00:03.000096",
        "meta_mean_motion": 15.7535489,
        "meta_eccentricity": 0.0001566,
        "meta_inclination": 43.0009,
        "meta_ra_of_asc_node": 104.9327,
        "meta_arg_of_pericenter": 290.6871,
        "meta_mean_anomaly": 116.8596,
        "meta_ephemeris_type": 0,
        "meta_classification_type": "U",
        "meta_norad_cat_id": 66962,
        "meta_element_set_no": 999,
        "meta_rev_at_epoch": 346,
        "meta_bstar": -0.013292337,
        "meta_mean_motion_dot": -0.01813542,
        "meta_mean_motion_ddot": 0,
        "tle_line1": "1 66962U 25288D   25356.91670139 -.01813542  00000+0 -13292-1 0  9994",
        "tle_line2": "2 66962  43.0009 104.9327 0001566 290.6871 116.8596 15.75354890  3460"
      },
      "geometry": {
        "type": "Point",
        "coordinates": [
          -67.55168278931689,
          -9.173213426665395
        ]
      }
    },
    {
      "type": "Feature",
      "properties": {
        "norad_id": 66963,
        "name": "STARLINK-36133",
        "group": "last-30-days",
        "lat": -10.458510761309261,
        "lon": -66.11030369348863,
        "alt_km": 349.3619228866628,
        "timestamp": "2025-12-23T07:45:08.118357+00:00",
        "meta_object_name": "STARLINK-36133",
        "meta_object_id": "2025-288E",
        "meta_epoch": "2025-12-22T22:00:03.000096",
        "meta_mean_motion": 15.75363651,
        "meta_eccentricity": 0.00014757,
        "meta_inclination": 43.0007,
        "meta_ra_of_asc_node": 104.9282,
        "meta_arg_of_pericenter": 286.8301,
        "meta_mean_anomaly": 122.6313,
        "meta_ephemeris_type": 0,
        "meta_classification_type": "U",
        "meta_norad_cat_id": 66963,
        "meta_element_set_no": 999,
        "meta_rev_at_epoch": 346,
        "meta_bstar": -0.01338804,
        "meta_mean_motion_dot": -0.01825476,
        "meta_mean_motion_ddot": 0,
        "tle_line1": "1 66963U 25288E   25356.91670139 -.01825476  00000+0 -13388-1 0  9990",
        "tle_line2": "2 66963  43.0007 104.9282 0001475 286.8301 122.6313 15.75363651  3460"
      },
      "geometry": {
        "type": "Point",
        "coordinates": [
          -66.11030369348863,
          -10.458510761309261
        ]
      }
    },
    {
      "type": "Feature",
      "properties": {
        "norad_id": 66964,
        "name": "STARLINK-36104",
        "group": "last-30-days",
        "lat": -11.734077688782381,
        "lon": -64.66147118645331,
        "alt_km": 349.52172281678395,
        "timestamp": "2025-12-23T07:45:08.118367+00:00",
        "meta_object_name": "STARLINK-36104",
        "meta_object_id": "2025-288F",
        "meta_epoch": "2025-12-22T22:00:03.000096",
        "meta_mean_motion": 15.75357589,
        "meta_eccentricity": 0.00015299,
        "meta_inclination": 43.0006,
        "meta_ra_of_asc_node": 104.9228,
        "meta_arg_of_pericenter": 289.6827,
        "meta_mean_anomaly": 121.6963,
        "meta_ephemeris_type": 0,
        "meta_classification_type": "U",
        "meta_norad_cat_id": 66964,
        "meta_element_set_no": 999,
        "meta_rev_at_epoch": 346,
        "meta_bstar": -0.01331791,
        "meta_mean_motion_dot": -0.01816748,
        "meta_mean_motion_ddot": 0,
        "tle_line1": "1 66964U 25288F   25356.91670139 -.01816748  00000+0 -13318-1 0  9996",
        "tle_line2": "2 66964  43.0006 104.9228 0001529 289.6827 121.6963 15.75357589  3467"
      },
      "geometry": {
        "type": "Point",
        "coordinates": [
          -64.66147118645331,
          -11.734077688782381
        ]
      }
    },
    {
      "type": "Feature",
      "properties": {
        "norad_id": 66965,
        "name": "STARLINK-36067",
        "group": "last-30-days",
        "lat": -13.00141596818521,
        "lon": -63.19861923265112,
        "alt_km": 349.25564928490166,
        "timestamp": "2025-12-23T07:45:08.118378+00:00",
        "meta_object_name": "STARLINK-36067",
        "meta_object_id": "2025-288G",
        "meta_epoch": "2025-12-22T22:00:03.000096",
        "meta_mean_motion": 15.75340804,
        "meta_eccentricity": 0.00012398,
        "meta_inclination": 43.0003,
        "meta_ra_of_asc_node": 104.9188,
        "meta_arg_of_pericenter": 275.9659,
        "meta_mean_anomaly": 137.3218,
        "meta_ephemeris_type": 0,
        "meta_classification_type": "U",
        "meta_norad_cat_id": 66965,
        "meta_element_set_no": 999,
        "meta_rev_at_epoch": 346,
        "meta_bstar": -0.013035289,
        "meta_mean_motion_dot": -0.01781596,
        "meta_mean_motion_ddot": 0,
        "tle_line1": "1 66965U 25288G   25356.91670139 -.01781596  00000+0 -13035-1 0  9995",
        "tle_line2": "2 66965  43.0003 104.9188 0001239 275.9659 137.3218 15.75340804  3468"
      },
      "geometry": {
        "type": "Point",
        "coordinates": [
          -63.19861923265112,
          -13.00141596818521
        ]
      }
    },
    {
      "type": "Feature",
      "properties": {
        "norad_id": 66966,
        "name": "STARLINK-36139",
        "group": "last-30-days",
        "lat": -14.258093295789733,
        "lon": -61.72495600290868,
        "alt_km": 349.455568022986,
        "timestamp": "2025-12-23T07:45:08.118389+00:00",
        "meta_object_name": "STARLINK-36139",
        "meta_object_id": "2025-288H",
        "meta_epoch": "2025-12-22T22:00:03.000096",
        "meta_mean_motion": 15.75342986,
        "meta_eccentricity": 0.00020107,
        "meta_inclination": 43.0005,
        "meta_ra_of_asc_node": 104.9136,
        "meta_arg_of_pericenter": 282.4761,
        "meta_mean_anomaly": 132.7356,
        "meta_ephemeris_type": 0,
        "meta_classification_type": "U",
        "meta_norad_cat_id": 66966,
        "meta_element_set_no": 999,
        "meta_rev_at_epoch": 346,
        "meta_bstar": -0.013122319,
        "meta_mean_motion_dot": -0.01792798,
        "meta_mean_motion_ddot": 0,
        "tle_line1": "1 66966U 25288H   25356.91670139 -.01792798  00000+0 -13122-1 0  9999",
        "tle_line2": "2 66966  43.0005 104.9136 0002010 282.4761 132.7356 15.75342986  3464"
      },
      "geometry": {
        "type": "Point",
        "coordinates": [
          -61.72495600290868,
          -14.258093295789733
        ]
      }
    },
    {
      "type": "Feature",
      "properties": {
        "norad_id": 66967,
        "name": "STARLINK-36136",
        "group": "last-30-days",
        "lat": -15.518573381194585,
        "lon": -60.21874512148885,
        "alt_km": 349.14231304710484,
        "timestamp": "2025-12-23T07:45:08.118398+00:00",
        "meta_object_name": "STARLINK-36136",
        "meta_object_id": "2025-288J",
        "meta_epoch": "2025-12-22T22:00:03.000096",
        "meta_mean_motion": 15.75256434,
        "meta_eccentricity": 0.00018435,
        "meta_inclination": 43.0005,
        "meta_ra_of_asc_node": 104.9084,
        "meta_arg_of_pericenter": 265.7372,
        "meta_mean_anomaly": 151.478,
        "meta_ephemeris_type": 0,
        "meta_classification_type": "U",
        "meta_norad_cat_id": 66967,
        "meta_element_set_no": 999,
        "meta_rev_at_epoch": 346,
        "meta_bstar": -0.012614379,
        "meta_mean_motion_dot": -0.01725757,
        "meta_mean_motion_ddot": 0,
        "tle_line1": "1 66967U 25288J   25356.91670139 -.01725757  00000+0 -12614-1 0  9996",
        "tle_line2": "2 66967  43.0005 104.9084 0001843 265.7372 151.4780 15.75256434  3463"
      },
      "geometry": {
        "type": "Point",
        "coordinates": [
          -60.21874512148885,
          -15.518573381194585
        ]
      }
    }
  ]
}